{"type": "FeatureCollection", "features": [ {"type": "Feature", "properties": {"norad_id": 32185, "name": "FENGYUN 1C DEB", "group": "fengyun-1c-debris", "lat": 22.459710107574193, "lon": 6.855313800730049, "alt_km": 605.2515721886512, "timestamp": "2025-12-04T03:47:54.828951+00:00", "meta": {"OBJECT_NAME": "FENGYUN 1C DEB", "OBJECT_ID": "1999-025CUF", "EPOCH": "2025-12-02T19:08:27.849984", "MEAN_MOTION": 15.02046295, "ECCENTRICITY": 0.01655781, "INCLINATION": 98.9029, "RA_OF_ASC_NODE": 181.5789, "ARG_OF_PERICENTER": 47.3778, "MEAN_ANOMALY": 314.1269, "EPHEMERIS_TYPE": 0, "CLASSIFICATION_TYPE": "U", "NORAD_CAT_ID": 32185, "ELEMENT_SET_NO": 999, "REV_AT_EPOCH": 94866, "BSTAR": 0.0032837724, "MEAN_MOTION_DOT": 0.00058333, "MEAN_MOTION_DDOT": 0}, "tle": {"line1": "1 32185U 99025CUF 25336.79754456  .00058333  00000+0  32838-2 0  9997", "line2": "2 32185  98.9029 181.5789 0165578  47.3778 314.1269 15.02046295948668"}}, "geometry": {"type": "Point", "coordinates": [6.855313800730049, 22.459710107574193]}}, {"type": "Feature", "properties": {"norad_id": 32186, "name": "FENGYUN 1C DEB", "group": "fengyun-1c-debris", "lat": 22.363502848259593, "lon": 24.554566888639826, "alt_km": 1164.4058215948862, "timestamp": "2025-12-04T03:47:54.828961+00:00", "meta": {"OBJECT_NAME": "FENGYUN 1C DEB", "OBJECT_ID": "1999-025CUG", "EPOCH": "2025-11-27T22:32:39.210144", "MEAN_MOTION": 13.76456233, "ECCENTRICITY": 0.0273811, "INCLINATION": 99.6093, "RA_OF_ASC_NODE": 22.268, "ARG_OF_PERICENTER": 239.107, "MEAN_ANOMALY": 302.2685, "EPHEMERIS_TYPE": 0, "CLASSIFICATION_TYPE": "U", "NORAD_CAT_ID": 32186, "ELEMENT_SET_NO": 999, "REV_AT_EPOCH": 62406, "BSTAR": 0.0013119, "MEAN_MOTION_DOT": 1.643e-05, "MEAN_MOTION_DDOT": 0}, "tle": {"line1": "1 32186U 99025CUG 25331.93934271  .00001643  00000+0  13119-2 0  9997", "line2": "2 32186  99.6093  22.2680 0273811 239.1070 302.2685 13.76456233624066"}}, "geometry": {"type": "Point", "coordinates": [24.554566888639826, 22.363502848259593]}}, {"type": "Feature", "properties": {"norad_id": 32187, "name": "FENGYUN 1C DEB", "group": "fengyun-1c-debris", "lat": -79.93921110890973, "lon": 128.33498358308077, "alt_km": 1131.8216052808557, "timestamp": "2025-12-04T03:47:54.828971+00:00", "meta": {"OBJECT_NAME": "FENGYUN 1C DEB", "OBJECT_ID": "1999-025CUH", "EPOCH": "2025-11-14T01:13:51.155328", "MEAN_MOTION": 13.50459969, "ECCENTRICITY": 0.02935721, "INCLINATION": 99.509, "RA_OF_ASC_NODE": 38.2489, "ARG_OF_PERICENTER": 217.6555, "MEAN_ANOMALY": 268.1397, "EPHEMERIS_TYPE": 0, "CLASSIFICATION_TYPE": "U", "NORAD_CAT_ID": 32187, "ELEMENT_SET_NO": 999, "REV_AT_EPOCH": 65871, "BSTAR": 0.0010895496, "MEAN_MOTION_DOT": 8.7e-06, "MEAN_MOTION_DDOT": 0}, "tle": {"line1": "1 32187U 99025CUH 25318.05128652  .00000870  00000+0  10895-2 0  9993", "line2": "2 32187  99.5090  38.2489 0293572 217.6555 268.1397 13.50459969658712"}}, "geometry": {"type": "Point", "coordinates": [128.33498358308077, -79.93921110890973]}}, {"type": "Feature", "properties": {"norad_id": 32191, "name": "FENGYUN 1C DEB", "group": "fengyun-1c-debris", "lat": -56.71960748721287, "lon": -159.17616937802757, "alt_km": 754.9439376064392, "timestamp": "2025-12-04T03:47:54.828981+00:00", "meta": {"OBJECT_NAME": "FENGYUN 1C DEB", "OBJECT_ID": "1999-025CUM", "EPOCH": "2025-12-02T23:43:29.966592", "MEAN_MOTION": 14.25083181, "ECCENTRICITY": 0.00935094, "INCLINATION": 98.7086, "RA_OF_ASC_NODE": 33.1669, "ARG_OF_PERICENTER": 214.5855, "MEAN_ANOMALY": 144.9219, "EPHEMERIS_TYPE": 0, "CLASSIFICATION_TYPE": "U", "NORAD_CAT_ID": 32191, "ELEMENT_SET_NO": 999, "REV_AT_EPOCH": 64362, "BSTAR": 0.0019797477, "MEAN_MOTION_DOT": 4.816e-05, "MEAN_MOTION_DDOT": 0}, "tle": {"line1": "1 32191U 99025CUM 25336.98854128  .00004816  00000+0  19797-2 0  9998", "line2": "2 32191  98.7086  33.1669 0093509 214.5855 144.9219 14.25083181643624"}}, "geometry": {"type": "Point", "coordinates": [-159.17616937802757, -56.71960748721287]}}, {"type": "Feature", "properties": {"norad_id": 32192, "name": "FENGYUN 1C DEB", "group": "fengyun-1c-debris", "lat": -70.67627700527264, "lon": 3.98605295521666, "alt_km": 908.0494952788104, "timestamp": "2025-12-04T03:47:54.828991+00:00", "meta": {"OBJECT_NAME": "FENGYUN 1C DEB", "OBJECT_ID": "1999-025CUN", "EPOCH": "2025-12-03T09:13:07.641408", "MEAN_MOTION": 13.82502199, "ECCENTRICITY": 0.0181293, "INCLINATION": 98.6532, "RA_OF_ASC_NODE": 209.013, "ARG_OF_PERICENTER": 187.8363, "MEAN_ANOMALY": 171.9952, "EPHEMERIS_TYPE": 0, "CLASSIFICATION_TYPE": "U", "NORAD_CAT_ID": 32192, "ELEMENT_SET_NO": 999, "REV_AT_EPOCH": 92583, "BSTAR": 0.00038302, "MEAN_MOTION_DOT": 4.32e-06, "MEAN_MOTION_DDOT": 0}, "tle": {"line1": "1 32192U 99025CUN 25337.38411622  .00000432  00000+0  38302-3 0  9996", "line2": "2 32192  98.6532 209.0130 0181293 187.8363 171.9952 13.82502199925838"}}, "geometry": {"type": "Point", "coordinates": [3.98605295521666, -70.67627700527264]}}, {"type": "Feature", "properties": {"norad_id": 32195, "name": "FENGYUN 1C DEB", "group": "fengyun-1c-debris", "lat": 71.20820875419363, "lon": -46.18648103543668, "alt_km": 873.4284384229077, "timestamp": "2025-12-04T03:47:54.829001+00:00", "meta": {"OBJECT_NAME": "FENGYUN 1C DEB", "OBJECT_ID": "1999-025CUR", "EPOCH": "2025-12-01T17:29:04.257600", "MEAN_MOTION": 14.08429834, "ECCENTRICITY": 0.00689475, "INCLINATION": 98.7739, "RA_OF_ASC_NODE": 338.4429, "ARG_OF_PERICENTER": 331.6193, "MEAN_ANOMALY": 28.1229, "EPHEMERIS_TYPE": 0, "CLASSIFICATION_TYPE": "U", "NORAD_CAT_ID": 32195, "ELEMENT_SET_NO": 999, "REV_AT_EPOCH": 63827, "BSTAR": 0.0006643102, "MEAN_MOTION_DOT": 1.12e-05, "MEAN_MOTION_DDOT": 0}, "tle": {"line1": "1 32195U 99025CUR 25335.72852150  .00001120  00000+0  66431-3 0  9999", "line2": "2 32195  98.7739 338.4429 0068947 331.6193  28.1229 14.08429834638271"}}, "geometry": {"type": "Point", "coordinates": [-46.18648103543668, 71.20820875419363]}}, {"type": "Feature", "properties": {"norad_id": 32197, "name": "FENGYUN 1C DEB", "group": "fengyun-1c-debris", "lat": 14.437254540702813, "lon": 69.31529437992353, "alt_km": 781.8044257754946, "timestamp": "2025-12-04T03:47:54.829011+00:00", "meta": {"OBJECT_NAME": "FENGYUN 1C DEB", "OBJECT_ID": "1999-025CUT", "EPOCH": "2025-12-03T00:16:34.012128", "MEAN_MOTION": 14.32622811, "ECCENTRICITY": 0.01612306, "INCLINATION": 98.901, "RA_OF_ASC_NODE": 245.8253, "ARG_OF_PERICENTER": 258.5415, "MEAN_ANOMALY": 117.5288, "EPHEMERIS_TYPE": 0, "CLASSIFICATION_TYPE": "U", "NORAD_CAT_ID": 32197, "ELEMENT_SET_NO": 999, "REV_AT_EPOCH": 94284, "BSTAR": 0.00064150126, "MEAN_MOTION_DOT": 1.961e-05, "MEAN_MOTION_DDOT": 0}, "tle": {"line1": "1 32197U 99025CUT 25337.01150477  .00001961  00000+0  64150-3 0  9997", "line2": "2 32197  98.9010 245.8253 0161230 258.5415 117.5288 14.32622811942842"}}, "geometry": {"type": "Point", "coordinates": [69.31529437992353, 14.437254540702813]}}, {"type": "Feature", "properties": {"norad_id": 32198, "name": "FENGYUN 1C DEB", "group": "fengyun-1c-debris", "lat": -7.021171083463712, "lon": -55.359044754741, "alt_km": 911.5926834349702, "timestamp": "2025-12-04T03:47:54.829021+00:00", "meta": {"OBJECT_NAME": "FENGYUN 1C DEB", "OBJECT_ID": "1999-025CUU", "EPOCH": "2025-11-26T15:55:14.672064", "MEAN_MOTION": 14.08693486, "ECCENTRICITY": 0.00946342, "INCLINATION": 98.344, "RA_OF_ASC_NODE": 118.7379, "ARG_OF_PERICENTER": 338.8779, "MEAN_ANOMALY": 20.8495, "EPHEMERIS_TYPE": 0, "CLASSIFICATION_TYPE": "U", "NORAD_CAT_ID": 32198, "ELEMENT_SET_NO": 999, "REV_AT_EPOCH": 56719, "BSTAR": 0.0016262032, "MEAN_MOTION_DOT": 2.879e-05, "MEAN_MOTION_DDOT": 0}, "tle": {"line1": "1 32198U 99025CUU 25330.66336426  .00002879  00000+0  16262-2 0  9991", "line2": "2 32198  98.3440 118.7379 0094634 338.8779  20.8495 14.08693486567195"}}, "geometry": {"type": "Point", "coordinates": [-55.359044754741, -7.021171083463712]}}, {"type": "Feature", "properties": {"norad_id": 32200, "name": "FENGYUN 1C DEB", "group": "fengyun-1c-debris", "lat": -65.57006753114555, "lon": -172.6733530303649, "alt_km": 836.6803861227891, "timestamp": "2025-12-04T03:47:54.829030+00:00", "meta": {"OBJECT_NAME": "FENGYUN 1C DEB", "OBJECT_ID": "1999-025CUW", "EPOCH": "2025-12-01T10:10:20.091360", "MEAN_MOTION": 14.1562895, "ECCENTRICITY": 0.00392526, "INCLINATION": 98.7925, "RA_OF_ASC_NODE": 24.5506, "ARG_OF_PERICENTER": 323.0087, "MEAN_ANOMALY": 36.8381, "EPHEMERIS_TYPE": 0, "CLASSIFICATION_TYPE": "U", "NORAD_CAT_ID": 32200, "ELEMENT_SET_NO": 999, "REV_AT_EPOCH": 94203, "BSTAR": 0.0011757529, "MEAN_MOTION_DOT": 2.276e-05, "MEAN_MOTION_DDOT": 0}, "tle": {"line1": "1 32200U 99025CUW 25335.42384365  .00002276  00000+0  11758-2 0  9995", "line2": "2 32200  98.7925  24.5506 0039252 323.0087  36.8381 14.15628950942033"}}, "geometry": {"type": "Point", "coordinates": [-172.6733530303649, -65.57006753114555]}}, {"type": "Feature", "properties": {"norad_id": 32203, "name": "FENGYUN 1C DEB", "group": "fengyun-1c-debris", "lat": 19.637910080418802, "lon": 52.50474760351038, "alt_km": 367.26028142784526, "timestamp": "2025-12-04T03:47:54.829040+00:00", "meta": {"OBJECT_NAME": "FENGYUN 1C DEB", "OBJECT_ID": "1999-025CUZ", "EPOCH": "2025-12-03T03:43:09.125472", "MEAN_MOTION": 15.39646762, "ECCENTRICITY": 0.01471116, "INCLINATION": 97.0173, "RA_OF_ASC_NODE": 229.0233, "ARG_OF_PERICENTER": 126.0108, "MEAN_ANOMALY": 235.488, "EPHEMERIS_TYPE": 0, "CLASSIFICATION_TYPE": "U", "NORAD_CAT_ID": 32203, "ELEMENT_SET_NO": 999, "REV_AT_EPOCH": 74950, "BSTAR": 0.00079053984, "MEAN_MOTION_DOT": 0.00045869, "MEAN_MOTION_DDOT": 0}, "tle": {"line1": "1 32203U 99025CUZ 25337.15496673  .00045869  00000+0  79054-3 0  9995", "line2": "2 32203  97.0173 229.0233 0147111 126.0108 235.4880 15.39646762749507"}}, "geometry": {"type": "Point", "coordinates": [52.50474760351038, 19.637910080418802]}}]}